NORAD_CAT_ID,OBJECT_NAME,OBJECT_TYPE,EPOCH,MEAN_MOTION,ECCENTRICITY,INCLINATION,RA_OF_ASC_NODE,ARG_OF_PERICENTER,MEAN_ANOMALY,BSTAR,MEAN_MOTION_DOT,MEAN_MOTION_DDOT,TLE_LINE0,TLE_LINE1,TLE_LINE2,SEMIMAJOR_AXIS,PERIOD,APOGEE,PERIGEE,DECAYED
52703.0,STARLINK-4020,PAYLOAD,2022-10-22 02:12:46,15.08809823,0.0002221,53.2182,276.4479,33.3318,326.7813,0.00050699,7.783e-05,0.0,0 STARLINK-4020,1 52703U 22053AZ  22295.09220576  .00007783  00000-0  50699-3 0  9997,2 52703  53.2182 276.4479 0002221  33.3318 326.7813 15.08809823 24502,6917.973000000001,95.439,541.374,538.3009999999998,0.0
52703.0,STARLINK-4020,PAYLOAD,2022-10-22 08:34:18,15.08837182,0.0002516,53.2181,275.2582,34.4464,325.6691,5.8332e-05,6.4e-06,0.0,0 STARLINK-4020,1 52703U 22053AZ  22295.35716001  .00000640  00000-0  58332-4 0  9997,2 52703  53.2181 275.2582 0002516  34.4464 325.6691 15.08837182 23694,6917.889,95.438,541.495,538.013,0.0
52703.0,STARLINK-4020,PAYLOAD,2022-10-23 08:25:05,15.08845636,0.0002543,53.2181,270.7975,35.4108,324.7053,6.5028e-05,7.47e-06,0.0,0 STARLINK-4020,1 52703U 22053AZ  22296.35075287  .00000747  00000-0  65028-4 0  9990,2 52703  53.2181 270.7975 0002543  35.4108 324.7053 15.08845636 24692,6917.863,95.437,541.487,537.969,0.0
52703.0,STARLINK-4020,PAYLOAD,2022-10-24 08:15:52,15.08838266,0.0002552,53.2182,266.3382,35.8638,324.2525,4.9253e-05,4.95e-06,0.0,0 STARLINK-4020,1 52703U 22053AZ  22297.34435512  .00000495  00000-0  49253-4 0  9993,2 52703  53.2182 266.3382 0002552  35.8638 324.2525 15.08838266 23990,6917.886,95.438,541.516,537.985,0.0
52703.0,STARLINK-4020,PAYLOAD,2022-10-24 14:37:26,15.08823301,0.0002723,53.2178,265.1474,30.9172,329.1980000000001,-8.308700000000001e-05,-1.6100000000000002e-05,0.0,0 STARLINK-4020,1 52703U 22053AZ  22297.60933005 -.00001610  00000-0 -83087-4 0  9997,2 52703  53.2178 265.1474 0002723  30.9172 329.1980 15.08823301 24032,6917.931,95.439,541.68,537.913,0.0
52703.0,STARLINK-4020,PAYLOAD,2022-10-25 06:31:17,15.08827393,0.0002381999999999,53.2179,262.1736,30.0547,330.0581,-6.976600000000001e-05,-1.398e-05,0.0,0 STARLINK-4020,1 52703U 22053AZ  22298.27173384 -.00001398  00000-0 -69766-4 0  9998,2 52703  53.2179 262.1736 0002382  30.0547 330.0581 15.08827393 24133,6917.919,95.438,541.432,538.136,0.0
52703.0,STARLINK-4020,PAYLOAD,2022-10-25 14:28:13,15.08830579,0.000242,53.2179,260.6875,30.7576,329.3557,-5.816e-05,-1.214e-05,0.0,0 STARLINK-4020,1 52703U 22053AZ  22298.60293426 -.00001214  00000-0 -58160-4 0  9998,2 52703  53.2179 260.6875 0002420  30.7576 329.3557 15.08830579 25036,6917.909000000002,95.438,541.448,538.1,0.0
52703.0,STARLINK-4020,PAYLOAD,2022-10-26 01:35:55,15.08837828,0.0002268,53.2183,258.6067,37.7354,322.3797,2.0499e-05,3.8e-07,0.0,0 STARLINK-4020,1 52703U 22053AZ  22299.06661018  .00000038  00000-0  20499-4 0  9990,2 52703  53.2183 258.6067 0002268  37.7354 322.3797 15.08837828 25103,6917.887,95.438,541.321,538.183,0.0
52703.0,STARLINK-4020,PAYLOAD,2022-10-26 06:22:04,15.0883789,0.0002616,53.2177,257.7136,28.1663,331.94699999999995,8.109999999999999e-05,1.002e-05,0.0,0 STARLINK-4020,1 52703U 22053AZ  22299.26532947  .00001002  00000-0  81100-4 0  9998,2 52703  53.2177 257.7136 0002616  28.1663 331.9470 15.08837890 24288,6917.887,95.438,541.562,537.942,0.0
52703.0,STARLINK-4020,PAYLOAD,2022-10-26 14:18:59,15.08841512,0.0002602,53.218,256.2274,31.9722,328.1427,0.00019544,2.824e-05,0.0,0 STARLINK-4020,1 52703U 22053AZ  22299.59652616  .00002824  00000-0  19544-3 0  9995,2 52703  53.2180 256.2274 0002602  31.9722 328.1427 15.08841512 24334,6917.876,95.437,541.5409999999998,537.941,0.0
52703.0,STARLINK-4020,PAYLOAD,2022-10-27 01:26:43,15.08809936,0.0002387,53.2181,254.1456,31.4254,328.6880000000001,0.00063378,9.805e-05,0.0,0 STARLINK-4020,1 52703U 22053AZ  22300.06022459  .00009805  00000-0  63378-3 0  9996,2 52703  53.2181 254.1456 0002387  31.4254 328.6880 15.08809936 25253,6917.972,95.439,541.489,538.186,0.0
52703.0,STARLINK-4020,PAYLOAD,2022-10-27 07:48:14,15.08844547,0.0002521,53.2176,252.9558,31.7697,328.3447,0.00029132,4.352e-05,0.0,0 STARLINK-4020,1 52703U 22053AZ  22300.32517218  .00004352  00000-0  29132-3 0  9999,2 52703  53.2176 252.9558 0002521  31.7697 328.3447 15.08844547 25297,6917.866,95.437,541.475,537.987,0.0
52703.0,STARLINK-4020,PAYLOAD,2022-10-27 14:09:47,15.08851366,0.0002575,53.218,251.7663,32.7227,327.3925,0.00031774,4.774e-05,0.0,0 STARLINK-4020,1 52703U 22053AZ  22300.59012866  .00004774  00000-0  31774-3 0  9990,2 52703  53.2180 251.7663 0002575  32.7227 327.3925 15.08851366 24482,6917.846,95.437,541.492,537.929,0.0
52703.0,STARLINK-4020,PAYLOAD,2022-10-28 02:52:51,15.08853642,0.0002588,53.2176,249.3874,35.1909,324.9254,0.00015807,2.229e-05,0.0,0 STARLINK-4020,1 52703U 22053AZ  22301.12004477  .00002229  00000-0  15807-3 0  9991,2 52703  53.2176 249.3874 0002588  35.1909 324.9254 15.08853642 24568,6917.839,95.437,541.494,537.913,0.0
52703.0,STARLINK-4020,PAYLOAD,2022-10-28 20:22:05,15.08854219,0.0002886,53.2176,246.1164,43.6141,316.5079,0.00016066,2.27e-05,0.0,0 STARLINK-4020,1 52703U 22053AZ  22301.84868045  .00002270  00000-0  16066-3 0  9993,2 52703  53.2176 246.1164 0002886  43.6141 316.5079 15.08854219 25528,6917.837,95.437,541.698,537.705,0.0
52703.0,STARLINK-4020,PAYLOAD,2022-10-29 05:54:24,15.08851732,0.0002386,53.2177,244.3324,36.6752,323.4403,9.1288e-05,1.165e-05,0.0,0 STARLINK-4020,1 52703U 22053AZ  22302.24611800  .00001165  00000-0  91288-4 0  9995,2 52703  53.2177 244.3324 0002386  36.6752 323.4403 15.08851732 24739,6917.845,95.437,541.36,538.059,0.0
52703.0,STARLINK-4020,PAYLOAD,2022-10-29 18:37:29,15.0884502,0.0002398,53.217,241.9539,35.9686,324.1467,-6.3291e-06,-3.89e-06,0.0,0 STARLINK-4020,1 52703U 22053AZ  22302.77603962 -.00000389  00000-0 -63291-5 0  9996,2 52703  53.2170 241.9539 0002398  35.9686 324.1467 15.08845020 24814,6917.865,95.437,541.389,538.071,0.0
52703.0,STARLINK-4020,PAYLOAD,2022-10-30 02:34:25,15.088487699999998,0.0002134999999999,53.217,240.4668,39.8898,320.2251,6.903099999999997e-06,-1.78e-06,0.0,0 STARLINK-4020,1 52703U 22053AZ  22303.10723685 -.00000178  00000-0  69031-5 0  9992,2 52703  53.2170 240.4668 0002135  39.8898 320.2251 15.08848770 24866,6917.854,95.437,541.196,538.242,0.0
52703.0,STARLINK-4020,PAYLOAD,2022-10-30 20:03:40,15.08835892,0.0002485999999999,53.217,237.1971,37.8635,322.2532,8.2549e-05,1.026e-05,0.0,0 STARLINK-4020,1 52703U 22053AZ  22303.83588471  .00001026  00000-0  82549-4 0  9994,2 52703  53.2170 237.1971 0002486  37.8635 322.2532 15.08835892 24979,6917.893,95.438,541.4780000000002,538.038,0.0
52703.0,STARLINK-4020,PAYLOAD,2022-10-31 05:35:59,15.08830855,0.0002334999999999,53.2181,235.412,30.8213,329.2916,-3.1691e-05,-7.93e-06,0.0,0 STARLINK-4020,1 52703U 22053AZ  22304.23333086 -.00000793  00000-0 -31691-4 0  9993,2 52703  53.2181 235.4120 0002335  30.8213 329.2916 15.08830855 25031,6917.908,95.438,541.389,538.158,0.0
52703.0,STARLINK-4020,PAYLOAD,2022-10-31 19:54:28,15.08827873,0.0002346999999999,53.2177,232.7362,32.1496,327.9639,2.2189e-05,6.5e-07,0.0,0 STARLINK-4020,1 52703U 22053AZ  22304.82949548  .00000065  00000-0  22189-4 0  9996,2 52703  53.2177 232.7362 0002347  32.1496 327.9639 15.08827873 25128,6917.917,95.438,541.406,538.159,0.0
52703.0,STARLINK-4020,PAYLOAD,2022-11-01 03:51:23,15.0884177,0.0002048,53.219,231.2486,46.629,313.4872,0.00011727,1.579e-05,0.0,0 STARLINK-4020,1 52703U 22053AZ  22305.16068761  .00001579  00000-0  11727-3 0  9999,2 52703  53.2190 231.2486 0002048  46.6290 313.4872 15.08841770 26025,6917.875,95.437,541.1569999999998,538.323,0.0
52703.0,STARLINK-4020,PAYLOAD,2022-11-01 11:48:19,15.08845332,0.0002654,53.218,229.7617,33.0795,327.0363,0.00017118,2.437e-05,0.0,0 STARLINK-4020,1 52703U 22053AZ  22305.49188704  .00002437  00000-0  17118-3 0  9999,2 52703  53.2180 229.7617 0002654  33.0795 327.0363 15.08845332 25220,6917.864000000001,95.437,541.565,537.893,0.0
52703.0,STARLINK-4020,PAYLOAD,2022-11-01 19:45:15,15.08836912,0.0002234999999999,53.2172,228.2753,29.0191,331.0925,0.00014477,2.016e-05,0.0,0 STARLINK-4020,1 52703U 22053AZ  22305.82309220  .00002016  00000-0  14477-3 0  9992,2 52703  53.2172 228.2753 0002235  29.0191 331.0925 15.08836912 26129,6917.89,95.438,541.3009999999998,538.2090000000002,0.0
52703.0,STARLINK-4020,PAYLOAD,2022-11-02 11:39:06,15.08835625,0.000236,53.2171,225.302,28.9637,331.1485,0.00010838,1.437e-05,0.0,0 STARLINK-4020,1 52703U 22053AZ  22306.48549444  .00001437  00000-0  10838-3 0  9992,2 52703  53.2171 225.3020 0002360  28.9637 331.1485 15.08835625 25373,6917.894,95.438,541.391,538.126,0.0
52703.0,STARLINK-4020,PAYLOAD,2022-11-03 03:32:58,15.08838032,0.0002621,53.2192,222.3277,36.6709,323.4462,3.8675e-05,3.27e-06,0.0,0 STARLINK-4020,1 52703U 22053AZ  22307.14790127  .00000327  00000-0  38675-4 0  9999,2 52703  53.2192 222.3277 0002621  36.6709 323.4462 15.08838032 26323,6917.886,95.438,541.565,537.938,0.0
52703.0,STARLINK-4020,PAYLOAD,2022-11-03 19:26:48,15.08857441,0.0002322,53.2173,219.3555,27.6843,332.4272,0.00022069,3.227e-05,0.0,0 STARLINK-4020,1 52703U 22053AZ  22307.81027918  .00003227  00000-0  22069-3 0  9995,2 52703  53.2173 219.3555 0002322  27.6843 332.4272 15.08857441 26429,6917.8269999999975,95.436,541.298,538.086,0.0
52703.0,STARLINK-4020,PAYLOAD,2022-11-04 11:20:39,15.08858009,0.0002598,53.2174,216.3821,33.2134,326.9021,0.00025207,3.728e-05,0.0,0 STARLINK-4020,1 52703U 22053AZ  22308.47267783  .00003728  00000-0  25207-3 0  9997,2 52703  53.2174 216.3821 0002598  33.2134 326.9021 15.08858009 25671,6917.825,95.436,541.488,537.893,0.0
52703.0,STARLINK-4020,PAYLOAD,2022-11-04 17:42:12,15.08854318,0.0003129,53.2162,215.1937,43.5714,316.5525,0.00027941,4.163e-05,0.0,0 STARLINK-4020,1 52703U 22053AZ  22308.73764132  .00004163  00000-0  27941-3 0  9997,2 52703  53.2162 215.1937 0003129  43.5714 316.5525 15.08854318 26564,6917.837,95.437,541.866,537.5369999999998,0.0
